#cP2022 11 29  0  0  0.00000000      96 ORBIT IGS20 HLM  IGS
## 2238 172800.00000000   900.00000000 59912 0.0000000000000
+   31   G01G02G03G04G05G06G07G08G09G10G11G12G13G14G15G16G17
+        G18G19G20G21G22G23G24G25G26G27G29G30G31G32  0  0  0
+          0  0  0  0  0  0  0  0  0  0  0  0  0  0  0  0  0
+          0  0  0  0  0  0  0  0  0  0  0  0  0  0  0  0  0
+          0  0  0  0  0  0  0  0  0  0  0  0  0  0  0  0  0
++         2  2  2  2  2  2  2  2  2  2  3  3  2  3  2  3  2
++         3  2  2  3  2  3  2  3  2  2  3  2  3  2  0  0  0
++         0  0  0  0  0  0  0  0  0  0  0  0  0  0  0  0  0
++         0  0  0  0  0  0  0  0  0  0  0  0  0  0  0  0  0
++         0  0  0  0  0  0  0  0  0  0  0  0  0  0  0  0  0
%c G  cc GPS ccc cccc cccc cccc cccc ccccc ccccc ccccc ccccc
%c cc cc ccc ccc cccc cccc cccc cccc ccccc ccccc ccccc ccccc
%f  1.2500000  1.025000000  0.00000000000  0.000000000000000
%f  0.0000000  0.000000000  0.00000000000  0.000000000000000
%i    0    0    0    0      0      0      0      0         0
%i    0    0    0    0      0      0      0      0         0
/* RAPID ORBIT COMBINATION FROM WEIGHTED AVERAGE OF:        
/* cod emr esa gfz ngs sio usn whu                          
/* REFERENCED TO IGS TIME (IGST) AND TO WEIGHTED MEAN POLE: 
/* PCV:IGS20_2233 OL/AL:FES2004  NONE     Y  ORB:CMB CLK:CMB
*  2022 11 29 20 15  0.00000000
PG01 -16783.313579 -13606.453799 -15986.994073    244.628817  8  6  7  92       
PG02  19228.774878  11626.096644  14630.361931   -635.513961  6  8  7 122       
PG03 -12355.400853 -23041.301588   4874.779947   -374.678306  3  6  5  86       
PG04  -7968.273885 -13573.084030  21383.222409    -77.621641  7  3    114       
PG05   4759.596372  24774.972648   7937.086486   -106.187964  7  9  2  97       
PG06 -20310.811312   7099.313938  15691.344772    529.661976  6  7  6 111       
PG07 -25795.754898  -6706.536092   3469.785586    281.143997 10  8  9  79       
PG08   1256.669454 -20585.059648 -16565.226095    -96.210892  8  6  7 119       
PG09 -16596.339278  -2323.671866  20536.194458   -261.188800  6  5  6 122       
PG10  14360.160231  -3833.741638 -21863.427291    -13.980840  8  9  4 130       
PG11  -8755.690380  13236.287712  21299.335840    -47.961185  7  5  6 120       
PG12  10228.625945  24206.107254   3959.289621   -310.095317  4 10  6  59       
PG13 -10156.439470  21184.580889 -12381.343772    433.377212  6  9  2  65       
PG14 -15674.598274   1395.301451 -21400.012277    -75.935260 10  8 10 108       
PG15   1877.218980  20809.181376 -16684.286449     -8.255461  7  6  3  87       
PG16   1626.384199 -23461.240659  11591.043407   -526.676298  8  7  6 104       
PG17 -20855.823970  10128.028000 -12586.741508    681.998388  7  4  8  24       
PG18  26142.171944   5088.643471    609.353049    -40.387778 10  5  9 125       
PG19 -20027.321892  16990.641481  -3081.061517    243.955255  5  7  7 103       
PG20  -3843.501533  19209.155754  18056.235537    466.813521  8  6  4 103       
PG21  -9334.807206 -14542.357733 -19773.224633    154.979051  8  9  9 127       
PG22  18084.034504 -19320.127776    433.820430    374.648231  5  8  6  93       
PG23  17162.278959   8000.075808 -18687.049792     -0.601987  8  5  9 112       
PG24  13393.827168  14536.740360 -18267.735107     37.770655  6  8  6  60       
PG25  16153.245423  17023.429609  12402.836669    397.388760 10  7 10 135       
PG26   8512.973041 -15767.339701  19403.156860    237.181904  7  8  4  97       
PG27  11227.329968 -22565.035970  -7910.023751    166.090974  8  5  7 115       
PG29  14786.418577   5298.853976  21388.309931   -570.626384  6  7  8  87       
PG30 -25222.163407   1962.590559  -8414.292734   -536.136403  6  9  9  56       
PG31  19664.889982  -7990.425922  16083.849646   -201.741061  6  9  7 103       
PG32  20166.922451 -13260.695931 -10702.948115   -312.777778  8  6  6  98       
*  2022 11 29 20 30  0.00000000
PG01 -14923.318729 -13431.435993 -17873.924428    244.623986  9  6  7  97       
PG02  17528.080250  11712.929940  16663.433712   -635.512313  6  8  8 125       
PG03 -12328.674560 -23494.075984   2029.775051   -374.679415  4  6  5  93       
PG04  -6397.249140 -15397.087283  20653.719566    -77.615447  7  4    114       
PG05   4082.903405  23898.494760  10532.792413   -106.189625  8  9  2  95       
PG06 -21932.331511   6756.819820  13504.561587    529.669620  7  7  6 119       
PG07 -25270.146797  -6876.752308   6206.015241    281.139478 10  8  9  65       
PG08   2461.699531 -21920.284306 -14559.452507    -96.211293  8  6  7 119       
PG09 -15237.465583  -4313.346310  21248.584339   -261.183471  7  5  6 127       
PG10  15327.255378  -1517.820054 -21517.728825    -13.982089  8  9  2 139       
PG11 -11094.907127  12745.256055  20489.921490    -47.967162  7  4  4 121       
PG12  10115.151625  24581.863094   1115.640014   -310.099503  3  9  6  88       
PG13 -11191.441775  21925.732777  -9900.468973    433.383080  7  9  2  61       
PG14 -16486.522860   -883.717368 -20819.698122    -75.930069 11  7 11 111       
PG15    814.240663  22214.378366 -14773.901135     -8.252490  8  6  2  87       
PG16   2306.933376 -22086.425658  13929.761750   -526.675985  8  8  5 103       
PG17 -19922.339962   8780.135093 -14826.215520    682.000890  7  5  9  85       
PG18  25882.719391   5262.071953   3468.291344    -40.400689 11  6  9 122       
PG19 -19855.302757  16477.160079  -5919.595830    243.959751  6  7  6 105       
PG20  -5097.572722  17471.088571  19438.680568    466.810662  7  5  5 107       
PG21  -6912.002580 -14502.118569 -20679.046486    154.978186  8  9  9 132       
PG22  18176.385446 -19021.576914  -2431.297053    374.655117  4  7  7  95       
PG23  17894.732931   9903.008929 -17026.097530     -0.601593  9  3  9 113       
PG24  11291.522428  14581.343731 -19590.648229     37.755600  7  8  5  77       
PG25  16472.900742  18316.993797   9985.009950    397.392166 10  6  9 125       
PG26   9659.534771 -13753.955794  20398.284844    237.182765  6  7  4 106       
PG27  11862.235314 -22999.106834  -5144.700543    166.082233  8  6  6 115       
PG29  13168.920497   7177.781016  21883.564248   -570.628840  6  8  8  89       
PG30 -25994.854283   1562.283257  -5782.945162   -536.135952  6  9 10  57       
PG31  21356.139444  -7563.837066  14065.523634   -201.742393  7  9  8  95       
PG32  19526.236484 -12004.817563 -13092.550658   -312.789382  8  6  7  97       
*  2022 11 29 20 45  0.00000000
PG01 -12862.536727 -13348.643324 -19464.125939    244.619257  9  7  7  99       
PG02  15628.575559  11891.907339  18419.615250   -635.510604  7  7  8 122       
PG03 -12184.145548 -23656.575483   -849.985294   -374.680509  4  6  6  94       
PG04  -4982.877508 -17217.780170  19568.170134    -77.609216  8  5    106       
PG05   3223.146269  22808.085274  12944.609988   -106.190694  8  8     86       
PG06 -23310.914450   6525.035600  11087.138357    529.677243  7  6  7 109       
PG07 -24457.323713  -7050.640343   8839.608888    281.135208 10  7  8  52       
PG08   3468.189106 -23111.853800 -12299.420331    -96.213379  8  7  7 104       
PG09 -13949.146930  -6420.742806  21592.894237   -261.178144  7  5  6 121       
PG10  16390.268519    684.610748 -20797.656883    -13.983845  8  8  2 131       
PG11 -13346.226527  12391.156159  19327.885705    -47.973160  8  5  3 109       
PG12   9901.793961  24663.379956  -1747.140793   -310.103448  4  9  5  79       
PG13 -11994.481634  22503.039088  -7248.695782    433.389144  7  9  2  97       
PG14 -17377.175763  -3039.442502 -19881.593948    -75.924938 11  5 11  96       
PG15    -84.350747  23466.866720 -12613.003919     -8.249591  8  6  3  51       
PG16   3149.968161 -20510.955363  16019.153406   -526.675865  8  8  3 108       
PG17 -18915.911514   7187.455105 -16804.082651    682.003525  7  4  9 100       
PG18  25314.475089   5422.655587   6268.059114    -40.413578 11  7  9 129       
PG19 -19507.068172  15713.572415  -8655.252185    243.964367  6  7  7  83       
PG20  -6518.016108  15685.281928  20489.195471    466.808817  7  6  5  95       
PG21  -4397.774606 -14588.058021 -21213.602918    154.977481  8  8  8 124       
PG22  18084.493554 -18471.951615  -5253.869115    374.662065  4  7  7  63       
PG23  18633.065944  11582.245704 -15073.836149     -0.601224  9  3  8 106       
PG24   9063.454508  14731.592069 -20589.226436     37.740524  7  8  5  83       
PG25  16732.250061  19336.449734   7395.712997    397.395624  9  5  9 139       
PG26  10944.858646 -11719.101567  21037.240570    237.183633  6  7  5 108       
PG27  12298.020638 -23198.207475  -2289.082999    166.073494  7  6  6 100       
PG29  11634.901127   9170.632443  22000.988649   -570.631331  6  8  8  99       
PG30 -26485.693190   1225.159573  -3053.339910   -536.135538  7  9 10  62       
PG31  22824.457661  -7248.655277  11808.001135   -201.743479  7 10  8 113       
PG32  18808.241232 -10500.589665 -15252.638078   -312.800981  8  5  7  85       
EOF
